#cP2025  2  9  0  0  0.00000000     288   u+U IGS20 FIT  GFZ                    
## 2353      0.00000000   300.00000000 60715 0.0000000000000                    
+   79   E02E03E04E05E06E07E08E09E10E13E14E15E16E18E19E21E23                    
+        E24E25E26E27E29E30E31E33E34E36G01G02G03G04G05G06G07                    
+        G08G09G10G11G12G13G14G15G16G17G18G19G20G21G22G23G24                    
+        G25G26G27G28G29G30G31G32R01R02R03R04R05R07R08R09R11                    
+        R12R14R15R16R17R18R19R20R21R22R24 00 00 00 00 00 00                    
++         5  5  5  5  5  5  5  6  6  5  8  5  5  5  6  5  5                    
++         5  5  5  5  5  5  5  5  5  5  9  9  5  5  5  5  5                    
++         5  5  5  6  6  6  5  7  6  5  6  5  7  5  5  6  7                    
++         5  5  5  5  5  6  5  5 10  6  5  5  6  6  7  7  5                    
++         6  5  6  7  6  7  6  8  6  6  5  0  0  0  0  0  0                    
%c M  cc GPS ccc cccc cccc cccc cccc ccccc ccccc ccccc ccccc                    
%c cc cc ccc ccc cccc cccc cccc cccc ccccc ccccc ccccc ccccc                    
%f  1.2500000  1.025000000  0.00000000000  0.000000000000000                    
%f  0.0000000  0.000000000  0.00000000000  0.000000000000000                    
%i    0    0    0    0      0      0      0      0         0                    
%i    0    0    0    0      0      0      0      0         0                    
/* PCV:IGS20_2335 OL/AL:FES2014b NONE     YN CLK:CoN ORB:CoN                    
/*     GeoForschungsZentrum Potsdam                                             
/*                                                                              
/*                                                                              
*  2025  2  9 22 50  0.00000000                                                 
PE02  12335.446391 -26873.791886  -1569.866144    196.496424                    
PE03  14417.670350 -16159.854015 -20176.008034   -172.066846                    
PE04   8398.343369  15498.530610  23786.499135   -154.007148                    
PE05  28283.968640  -7300.537480  -4770.967262   4826.333740                    
PE06  18585.971749  11591.211074  19901.066555    -80.592367                    
PE07 -25536.121046  -6034.915293 -13703.704432   -168.189617                    
PE08  -7626.048335 -15555.199128 -24002.035084   -414.533113                    
PE09  25468.403289   6027.466119  13815.875203   -770.350539                    
PE10  18882.898328  22744.345599   1554.193880   -688.941815                    
PE13 -21834.800783 -16547.081628 -11178.257390    -30.223057                    
PE14 -20230.081786  18178.115401 -16746.778405    705.497044                    
PE15 -12934.407081 -25337.848516   8162.620156   -156.123390                    
PE16  18409.669494  -3053.289381 -22982.238857    -20.009115                    
PE18   4118.935021 -16482.435621  18223.758751   1094.826741                    
PE19 -16157.073932  15543.836106  19336.279273   1357.728657                    
PE21 -19134.319826  13585.855412  18028.656573   -645.394516                    
PE23 -12010.150646  27021.433313   1363.631955      6.932388                    
PE24  14946.895420   8135.319317 -24242.455590  -1260.621728                    
PE25  19179.398330 -13122.371385 -18342.717341     14.120890                    
PE26 -17691.575903   2269.871732 -23609.052855   -129.362383                    
PE27 -14869.998193  -8151.120624  24253.724350   -578.754658                    
PE29 -28175.651633   7489.959830   5086.825366    -69.320291                    
PE30  -1994.419015 -24699.186007  16182.951667  -1226.722667                    
PE31   1903.892463  24768.482305 -16093.354548    -53.984965                    
PE33  -3735.915475  18828.911958 -22523.122403     16.404010                    
PE34   3379.962808 -19095.873606  22366.216675   -162.706874                    
PE36  17827.481648  -1681.711738  23581.540317   -351.061220                    
PG01  20336.877886  12985.566996  11122.272423    110.609407                    
PG02  22327.620066  12692.660794   7956.918642   -246.856241                    
PG03  13776.492515   4672.754194  22056.365137    660.977308                    
PG04  24994.445403   1511.965207   9105.853442    524.874859                    
PG05  -7725.144030 -18397.541280 -17670.974261   -201.500251                    
PG06    -48.242465 -18636.178168  18943.587340   -177.070346                    
PG07  17821.951210  -1093.990427 -19257.194149    -13.688855                    
PG08  18543.579199   7995.789999 -17622.077990    477.343852                    
PG09  25740.297217  -6699.500586     -7.849749    561.271755                    
PG10 -10226.247104  23924.951132  -4124.265749   -312.074508                    
PG11  -9761.199243 -22468.128622  10375.276726   -748.081823                    
PG12 -13117.512778  -7753.951108  21466.634185   -569.318144                    
PG13  -9531.444904 -13555.919720 -21044.950045    696.011805                    
PG14  12858.361654 -21814.256086  -7539.209898    595.723714                    
PG15 -19499.640246  -5964.272860 -17615.091477    261.645343                    
PG16   1916.977178  22264.009862 -14363.955244    -56.854718                    
PG17  18652.320570 -13142.785864  14171.487945    433.359809                    
PG18 -16080.571673   3351.109579 -20889.245945   -653.903011                    
PG19   8712.132781 -14978.912219  19861.386293    596.211972                    
PG20  -1715.591287 -25725.101377  -6554.996051    366.423389                    
PG21  21029.802250  17187.632442   1497.871316    101.799925                    
PG22   9523.480213 -24972.858839    769.964678    -96.303789                    
PG23 -15294.410952  13740.948203 -16634.860006    420.554438                    
PG24 -21972.415039 -14312.386193   4916.707346   -453.926267                    
PG25 -16335.885429   6480.776761  19473.848338    495.273723                    
PG26  -2640.545033  25983.922207  -3683.158070    -84.370404                    
PG27   6881.567732  14081.748766 -21795.791350    -31.746497                    
PG28  -1506.879859  17856.964895  19588.468793   -555.953769                    
PG29 -26312.459666   4095.403924    -31.372001   -539.183698                    
PG30   9305.774840 -12828.825732 -21134.956833   -219.768113                    
PG31   5848.042082  21432.590880  14034.801838   -215.875845                    
PG32 -12980.775435  15531.249699  17328.878150   -524.877650                    
PR01  -7221.982597  -8221.102999 -23035.564355    114.199862                    
PR02 -19525.686362   3725.937994 -15892.427795    -37.551583                    
PR03 -21106.909477  14246.526746    814.417585    116.547371                    
PR04 -11308.135974  16080.464372  16279.866662    276.524203                    
PR05   4640.585507   9662.197672  23161.735557    145.101909                    
PR07  21139.659232 -14291.284794   -927.990534    100.505174                    
PR08  10969.624036 -16213.623440 -16309.784276     -6.168829                    
PR09  11502.347536   6068.637794 -21943.185014    237.071903                    
PR11   2554.193024 -23840.171604  -8674.617217     -7.881071                    
PR12  -6607.602835 -22099.917471  10921.889873     50.615412                    
PR14  -8991.087162  12627.663973  20268.551289     27.740741                    
PR15  -1847.299958  24492.608632   6908.310870     71.358781                    
PR16   6523.011426  22187.949433 -10798.928430     33.187909                    
PR17 -15221.142045   2678.837176 -20294.108303    164.757637                    
PR18    151.293589  11713.252624 -22648.694312    186.247124                    
PR19  13490.520544  15505.943987 -15106.395221    -40.090544                    
PR20  22744.457578  10133.357804   5657.795693   -125.664888                    
PR21  16201.184879  -1590.682129  19632.079848   -175.442175                    
PR22   -951.562200 -12590.475157  22189.345697    -59.885708                    
PR24 -23241.030159  -8616.964057  -6028.041358    -91.822341                    
EOF                                     
